NORAD_CAT_ID,OBJECT_NAME,OBJECT_TYPE,EPOCH,MEAN_MOTION,ECCENTRICITY,INCLINATION,RA_OF_ASC_NODE,ARG_OF_PERICENTER,MEAN_ANOMALY,BSTAR,MEAN_MOTION_DOT,MEAN_MOTION_DDOT,TLE_LINE0,TLE_LINE1,TLE_LINE2,SEMIMAJOR_AXIS,PERIOD,APOGEE,PERIGEE,DECAYED
52369.0,STARLINK-3841,PAYLOAD,2022-10-06 19:52:18,15.08839778,0.0001893,53.2182,39.9614,45.2503,314.8643,7.3287e-05,8.78e-06,0.0,0 STARLINK-3841,1 52369U 22045AQ  22279.82799681  .00000878  00000-0  73287-4 0  9994,2 52369  53.2182  39.9614 0001893  45.2503 314.8643 15.08839778 27239,6917.880999999999,95.438,541.056,538.437,0.0
52369.0,STARLINK-3841,PAYLOAD,2022-10-07 10:10:47,15.08849834,0.0001916999999999,53.218,37.2858,41.032,319.0816,0.00042081,6.417e-05,0.0,0 STARLINK-3841,1 52369U 22045AQ  22280.42415527  .00006417  00000-0  42081-3 0  9998,2 52369  53.2180  37.2858 0001917  41.0320 319.0816 15.08849834 27329,6917.85,95.437,541.0409999999998,538.389,0.0
52369.0,STARLINK-3841,PAYLOAD,2022-10-07 14:56:56,15.08847883,0.0001875,53.2193,36.3931,43.5588,316.5552,0.00031549,4.738e-05,0.0,0 STARLINK-3841,1 52369U 22045AQ  22280.62287525  .00004738  00000-0  31549-3 0  9996,2 52369  53.2193  36.3931 0001875  43.5588 316.5552 15.08847883 27355,6917.856,95.437,541.018,538.424,0.0
52369.0,STARLINK-3841,PAYLOAD,2022-10-08 03:40:01,15.08844908,0.000185,53.2184,34.0163,42.3551,317.7584,0.00018199,2.61e-05,0.0,0 STARLINK-3841,1 52369U 22045AQ  22281.15279406  .00002610  00000-0  18199-3 0  9997,2 52369  53.2184  34.0163 0001850  42.3551 317.7584 15.08844908 27439,6917.865,95.437,541.01,538.451,0.0
52369.0,STARLINK-3841,PAYLOAD,2022-10-08 11:36:57,15.08836377,0.0001807,53.2178,32.5301,41.4593,318.6536,6.3545e-05,7.23e-06,0.0,0 STARLINK-3841,1 52369U 22045AQ  22281.48399846  .00000723  00000-0  63545-4 0  9993,2 52369  53.2178  32.5301 0001807  41.4593 318.6536 15.08836377 27480,6917.891,95.438,541.007,538.506,0.0
52369.0,STARLINK-3841,PAYLOAD,2022-10-08 14:47:43,15.0883967,0.0001786,53.2175,31.9352,42.4117,317.7013,9.9238e-05,1.292e-05,0.0,0 STARLINK-3841,1 52369U 22045AQ  22281.61647656  .00001292  00000-0  99238-4 0  9993,2 52369  53.2175  31.9352 0001786  42.4117 317.7013 15.08839670 27507,6917.880999999999,95.438,540.982,538.511,0.0
52369.0,STARLINK-3841,PAYLOAD,2022-10-09 11:27:45,15.08831196,0.0002177999999999,53.22,28.0698,36.5398,323.5742,-6.4469e-05,-1.314e-05,0.0,0 STARLINK-3841,1 52369U 22045AQ  22282.47761036 -.00001314  00000-0 -64469-4 0  9992,2 52369  53.2200  28.0698 0002178  36.5398 323.5742 15.08831196 27630,6917.906999999997,95.438,541.279,538.266,0.0
52369.0,STARLINK-3841,PAYLOAD,2022-10-09 13:03:08,15.08832936,0.0002305,53.22,27.7723,34.2457,325.8684,-4.7502e-05,-1.044e-05,0.0,0 STARLINK-3841,1 52369U 22045AQ  22282.54384949 -.00001044  00000-0 -47502-4 0  9993,2 52369  53.2200  27.7723 0002305  34.2457 325.8684 15.08832936 27642,6917.901999999999,95.438,541.362,538.172,0.0
52369.0,STARLINK-3841,PAYLOAD,2022-10-09 14:38:31,15.08835344,0.0002116,53.2194,27.4741,38.7826,321.3318,-2.2519e-05,-6.47e-06,0.0,0 STARLINK-3841,1 52369U 22045AQ  22282.61008728 -.00000647  00000-0 -22519-4 0  9998,2 52369  53.2194  27.4741 0002116  38.7826 321.3318 15.08835344 27652,6917.895,95.438,541.2230000000002,538.2959999999998,0.0
52369.0,STARLINK-3841,PAYLOAD,2022-10-10 06:32:22,15.08840262,0.000197,53.218,24.5001,42.0255,318.0888,0.00020174,2.924e-05,0.0,0 STARLINK-3841,1 52369U 22045AQ  22283.27247974  .00002924  00000-0  20174-3 0  9991,2 52369  53.2180  24.5001 0001970  42.0255 318.0888 15.08840262 27756,6917.88,95.438,541.107,538.382,0.0
52369.0,STARLINK-3841,PAYLOAD,2022-10-10 12:53:54,15.0883774,0.0001952,53.2177,23.3099,42.1482,317.966,0.00013763,1.903e-05,0.0,0 STARLINK-3841,1 52369U 22045AQ  22283.53744167  .00001903  00000-0  13763-3 0  9998,2 52369  53.2177  23.3099 0001952  42.1482 317.9660 15.08837740 27796,6917.887,95.438,541.1030000000002,538.4019999999998,0.0
52369.0,STARLINK-3841,PAYLOAD,2022-10-11 11:09:19,15.08822242,0.000214,53.2178,19.148,38.7116,321.403,-0.00012546,-2.283e-05,0.0,0 STARLINK-3841,1 52369U 22045AQ  22284.46481083 -.00002283  00000-0 -12546-3 0  9998,2 52369  53.2178  19.1480 0002140  38.7116 321.4030 15.08822242 27937,6917.935,95.439,541.28,538.319,0.0
52369.0,STARLINK-3841,PAYLOAD,2022-10-12 03:03:12,15.08812448,0.0001946,53.2184,16.1737,39.0282,321.085,-0.0001865999999999,-3.254e-05,0.0,0 STARLINK-3841,1 52369U 22045AQ  22285.12722462 -.00003254  00000-0 -18660-3 0  9993,2 52369  53.2184  16.1737 0001946  39.0282 321.0850 15.08812448 28032,6917.965,95.439,541.1759999999998,538.4830000000002,0.0
52369.0,STARLINK-3841,PAYLOAD,2022-10-12 12:35:30,15.08827392,0.0001976999999999,53.2181,14.39,40.6128,319.5011,0.00014446,2.011e-05,0.0,0 STARLINK-3841,1 52369U 22045AQ  22285.52466280  .00002011  00000-0  14446-3 0  9996,2 52369  53.2181  14.3900 0001977  40.6128 319.5011 15.08827392 28093,6917.919,95.438,541.1519999999998,538.4159999999998,0.0
52369.0,STARLINK-3841,PAYLOAD,2022-10-13 04:29:22,15.08860501,0.0002136,53.2181,11.4171,37.9977,322.1166,0.0014032,0.00022127,0.0,0 STARLINK-3841,1 52369U 22045AQ  22286.18706396  .00022127  00000-0  14032-2 0  9994,2 52369  53.2181  11.4171 0002136  37.9977 322.1166 15.08860501 28191,6917.818,95.436,541.16,538.205,0.0
52369.0,STARLINK-3841,PAYLOAD,2022-10-13 12:26:17,15.0887554,0.0002207,53.2182,9.9305,37.8512,322.2635,0.0013398,0.0002112,0.0,0 STARLINK-3841,1 52369U 22045AQ  22286.51825726  .00021120  00000-0  13398-2 0  9996,2 52369  53.2182   9.9305 0002207  37.8512 322.2635 15.08875540 28243,6917.772,95.435,541.164,538.11,0.0
52369.0,STARLINK-3841,PAYLOAD,2022-10-14 05:55:31,15.08864613,0.0002145999999999,53.2182,6.6595,42.1362,317.9795,0.0010000999999999,0.00015675,0.0,0 STARLINK-3841,1 52369U 22045AQ  22287.24689000  .00015675  00000-0  10001-2 0  9996,2 52369  53.2182   6.6595 0002146  42.1362 317.9795 15.08864613 28351,6917.805,95.436,541.155,538.186,0.0
52369.0,STARLINK-3841,PAYLOAD,2022-10-14 12:17:03,15.08869234,0.00022,53.218,5.4701,42.4037,317.7124,0.0014214,0.00022424,0.0,0 STARLINK-3841,1 52369U 22045AQ  22287.51184636  .00022424  00000-0  14214-2 0  9991,2 52369  53.2180   5.4701 0002200  42.4037 317.7124 15.08869234 28390,6917.791,95.436,541.178,538.134,0.0
52369.0,STARLINK-3841,PAYLOAD,2022-10-15 13:43:13,15.08848844,0.0002186999999999,53.2178,0.7126,33.9567,326.1565,0.00014869,2.08e-05,0.0,0 STARLINK-3841,1 52369U 22045AQ  22288.57168032  .00002080  00000-0  14869-3 0  9993,2 52369  53.2178   0.7126 0002187  33.9567 326.1565 15.08848844 28558,6917.853,95.437,541.231,538.205,0.0
52369.0,STARLINK-3841,PAYLOAD,2022-10-16 11:58:38,15.08820692,0.000196,53.2179,356.5492,32.3051,327.8061,-0.00041123,-6.824e-05,0.0,0 STARLINK-3841,1 52369U 22045AQ  22289.49905182 -.00006824  00000-0 -41123-3 0  9995,2 52369  53.2179 356.5492 0001960  32.3051 327.8061 15.08820692 28691,6917.939,95.439,541.16,538.448,0.0
52369.0,STARLINK-3841,PAYLOAD,2022-10-16 13:34:01,15.08818898,0.0001959,53.2181,356.2514,30.346,329.7645,-0.00040785,-6.77e-05,0.0,0 STARLINK-3841,1 52369U 22045AQ  22289.56529312 -.00006770  00000-0 -40785-3 0  9993,2 52369  53.2181 356.2514 0001959  30.3460 329.7645 15.08818898 28702,6917.945,95.439,541.165,538.455,0.0
52369.0,STARLINK-3841,PAYLOAD,2022-10-17 11:49:25,15.08854159,0.000217,53.2175,352.0882,37.4881,322.6262,0.00087009,0.00013592,0.0,0 STARLINK-3841,1 52369U 22045AQ  22290.49265707  .00013592  00000-0  87009-3 0  9990,2 52369  53.2175 352.0882 0002170  37.4881 322.6262 15.08854159 28840,6917.837,95.437,541.203,538.201,0.0
52369.0,STARLINK-3841,PAYLOAD,2022-10-18 03:43:17,15.08831726,0.0001757,53.2182,349.1158,38.0263,322.0853,0.00018931,2.725e-05,0.0,0 STARLINK-3841,1 52369U 22045AQ  22291.15506190  .00002725  00000-0  18931-3 0  9992,2 52369  53.2182 349.1158 0001757  38.0263 322.0853 15.08831726 28948,6917.906,95.438,540.986,538.555,0.0
52369.0,STARLINK-3841,PAYLOAD,2022-10-18 11:40:13,15.08835398,0.0002079,53.2178,347.6295,39.5015,320.6128,0.00030998,4.648e-05,0.0,0 STARLINK-3841,1 52369U 22045AQ  22291.48626443  .00004648  00000-0  30998-3 0  9995,2 52369  53.2178 347.6295 0002079  39.5015 320.6128 15.08835398 28990,6917.894,95.438,541.198,538.321,0.0
52369.0,STARLINK-3841,PAYLOAD,2022-10-18 16:26:22,15.08843577,0.0001953,53.2177,346.7372,44.6538,315.4611,0.00023881,3.515e-05,0.0,0 STARLINK-3841,1 52369U 22045AQ  22291.68498028  .00003515  00000-0  23881-3 0  9998,2 52369  53.2177 346.7372 0001953  44.6538 315.4611 15.08843577 29024,6917.869000000002,95.437,541.086,538.383,0.0
52369.0,STARLINK-3841,PAYLOAD,2022-10-18 21:12:31,15.08849485,0.0002046999999999,53.2177,345.8453,39.8839,320.2303,0.00030053,4.499e-05,0.0,0 STARLINK-3841,1 52369U 22045AQ  22291.88369822  .00004499  00000-0  30053-3 0  9990,2 52369  53.2177 345.8453 0002047  39.8839 320.2303 15.08849485 29058,6917.851,95.437,541.132,538.3,0.0
52369.0,STARLINK-3841,PAYLOAD,2022-10-19 13:06:23,15.08841789,0.000205,53.2178,342.8711,42.4269,317.6881,0.00028541,4.257e-05,0.0,0 STARLINK-3841,1 52369U 22045AQ  22292.54609988  .00004257  00000-0  28541-3 0  9995,2 52369  53.2178 342.8711 0002050  42.4269 317.6881 15.08841789 29155,6917.875,95.437,541.158,538.322,0.0
52369.0,STARLINK-3841,PAYLOAD,2022-10-20 11:21:47,15.08841175,0.0002078,53.2179,338.7085,41.8399,318.2752,0.00015813,2.229e-05,0.0,0 STARLINK-3841,1 52369U 22045AQ  22293.47346066  .00002229  00000-0  15813-3 0  9998,2 52369  53.2179 338.7085 0002078  41.8399 318.2752 15.08841175 29299,6917.877,95.437,541.179,538.304,0.0
52369.0,STARLINK-3841,PAYLOAD,2022-10-20 12:57:10,15.08842603,0.0002077,53.2178,338.4111,41.6379,318.4771,0.0001696,2.412e-05,0.0,0 STARLINK-3841,1 52369U 22045AQ  22293.53969981  .00002412  00000-0  16960-3 0  9990,2 52369  53.2178 338.4111 0002077  41.6379 318.4771 15.08842603 29302,6917.871999999999,95.437,541.174,538.3009999999998,0.0
